{"type": "FeatureCollection", "features": [{"type": "Feature", "properties": {"OBJECTID": 396295, "BLPOLY_ID": "PL431421", "BL_ID": "BL78779", "FCODE": "BLDG", "ADDDATE": 1165276800000, "SOURCE": "GISS_LEGACY", "SACC": "IN", "MODDATE": 1347580800000, "HGTSOURCE": null, "GLOBALID": "2d44aa36-ec11-4d72-b693-1dd829c6d389", "Shape__Area": 1348.55859375, "Shape__Length": 163.6863406057397}, "geometry": {"type": "Polygon", "coordinates": [[[454798.96318163484, 4943271.337684478], [454812.2957982097, 4943275.941547089], [454817.6137187951, 4943260.646130078], [454798.846146461, 4943254.102513849], [454796.6323754377, 4943253.333383599], [454777.9156120666, 4943246.828824833], [454772.5986115283, 4943262.174317793], [454798.96318163484, 4943271.337684478]]]}}]}