{"type": "FeatureCollection", "features": [{"type": "Feature", "properties": {"OBJECTID": 424016, "BLPOLY_ID": "PL458988", "BL_ID": "BL23071", "FCODE": "BLDG", "ADDDATE": 1332288000000, "SOURCE": "GISS_LEGACY", "SACC": "IN", "MODDATE": 1560211200000, "HGTSOURCE": null, "GLOBALID": "e3bd5aab-49ab-40c6-abfc-67ba0d0cc48a", "Shape__Area": 260.16796875, "Shape__Length": 65.17795494652576}, "geometry": {"type": "Polygon", "coordinates": [[[454728.8498708023, 4943251.442216808], [454741.3276314335, 4943255.899037304], [454744.66534975386, 4943246.540832167], [454732.1848066987, 4943242.090361485], [454728.8498708023, 4943251.442216808]]]}}]}